{"type":"FeatureCollection","crs":{"type":"name","properties":{"name":"EPSG:4326"}},"features":[{"type":"Feature","id":1,"geometry":{"type":"Polygon","coordinates":[[[-14.84005,16.5284],[-14.83381,16.52654],[-14.81126,16.53004],[-14.75921,16.52313],[-14.71914,16.52757],[-14.68676,16.52225],[-14.6659,16.5146],[-14.63591,16.51647],[-14.59563,16.50766],[-14.57091,16.51276],[-14.5304,16.50046],[-14.49991,16.51229],[-14.48168,16.51204],[-14.43446,16.49763],[-14.40118,16.47439],[-14.37149,16.45881],[-14.34185,16.42536],[-14.31602,16.407],[-14.30024,16.39096],[-14.25313,16.3584],[-14.22154,16.34489],[-14.20458,16.32978],[-14.19242,16.31258],[-14.16159,16.29303],[-14.14915,16.28022],[-14.07727,16.2332],[-14.04674,16.20412],[-13.99133,16.17125],[-13.94865,16.13585],[-13.90529,16.09349],[-13.88693,16.08159],[-13.78967,16.05481],[-13.72401,16.03182],[-13.64061,15.97972],[-13.60724,15.96194],[-13.57337,15.94856],[-13.55503,15.93711],[-13.51419,15.89584],[-13.50854,15.88328],[-13.46806,15.82762],[-13.46007,15.80879],[-13.43337,15.76665],[-13.3674,15.67697],[-13.35286,15.64185],[-13.30949,15.56944],[-13.29658,15.54199],[-13.28996,15.5336],[-13.23106,15.49961],[-13.20831,15.48137],[-13.19011,15.43277],[-13.1689,15.40155],[-13.14174,15.37122],[-13.0824,15.34114],[-13.06512,15.32617],[-13.04424,15.31652],[-13.02531,15.30062],[-12.99897,15.26169],[-12.96926,15.22761],[-12.95294,15.16324],[-12.94214,15.14715],[-12.92206,15.12891],[-12.9017,15.1174],[-12.85169,15.06854],[-12.78275,15.03601],[-12.59925,14.93301],[-12.59807,14.92502],[-12.58888,14.91752],[-12.5868,14.91171],[-12.59038,14.88877],[-12.59885,14.87423],[-12.60625,14.84971],[-12.61126,14.80336],[-12.63544,14.7407],[-12.70856,14.62994],[-12.74202,14.60932],[-12.76632,14.60185],[-12.80164,14.58471],[-12.82734,14.57864],[-12.8549,14.57814],[-12.92343,14.564],[-12.94741,14.56487],[-13.23442,14.61721],[-13.51635,14.40742],[-13.83445,14.41413],[-14.00844,14.48629],[-14.2875,14.58562],[-14.29461,14.59097],[-14.29887,14.59933],[-14.30166,14.62115],[-14.31899,14.62929],[-14.32536,14.6488],[-14.33649,14.66204],[-14.39315,14.63051],[-14.40715,14.63887],[-14.47099,14.57088],[-14.49337,14.55232],[-14.59724,14.52631],[-14.61743,14.53187],[-14.61834,14.56298],[-14.83504,14.63127],[-14.84621,14.64171],[-14.84763,14.65006],[-14.85429,14.65771],[-14.90374,14.70476],[-14.93489,14.68521],[-14.96888,14.6566],[-14.99526,14.6396],[-15.02116,14.61633],[-15.04041,14.60816],[-15.10388,14.62449],[-15.24535,14.64523],[-15.32361,14.67051],[-15.37837,14.70792],[-15.4136,14.72497],[-15.4317,14.7379],[-15.43671,14.74252],[-15.43686,14.80404],[-15.44142,14.82329],[-15.48262,14.83705],[-15.54705,14.82099],[-15.60042,14.84535],[-15.66396,14.8483],[-15.70516,14.859],[-15.71502,14.88959],[-15.72747,14.9074],[-15.75062,14.92492],[-15.76635,14.92994],[-15.78551,14.96071],[-15.79626,14.96901],[-15.79945,14.99243],[-15.82432,15.35253],[-15.81256,15.39113],[-15.77485,15.44217],[-15.7725,15.45008],[-15.78261,15.4723],[-15.79386,15.4799],[-15.80275,15.4954],[-15.80711,15.51092],[-15.80694,15.52508],[-15.82211,15.55564],[-15.82071,15.56284],[-15.82385,15.57164],[-15.83459,15.57018],[-15.84697,15.56362],[-15.86297,15.56584],[-15.87639,15.5769],[-15.88529,15.59031],[-15.88699,15.5968],[-15.87204,15.61638],[-15.87136,15.62498],[-15.95271,15.6565],[-15.96848,15.6571],[-16.00114,15.64575],[-16.02765,15.6472],[-16.04651,15.64475],[-16.05967,15.64907],[-16.06999,15.65828],[-16.07241,15.66522],[-16.06985,15.67569],[-16.05264,15.71758],[-16.0528,15.74682],[-16.05991,15.77857],[-16.05806,15.78903],[-16.03932,15.81492],[-16.03632,15.83489],[-16.03995,15.84299],[-16.06568,15.86904],[-16.08955,15.90438],[-16.10773,15.94719],[-16.11217,15.96874],[-16.11674,15.97428],[-16.12609,15.97607],[-16.13777,15.96948],[-16.15261,15.96975],[-16.1467,15.98288],[-16.12954,15.99438],[-16.10233,16.00501],[-15.90594,16.1052],[-15.87709,16.12951],[-15.82587,16.1832],[-15.81216,16.1925],[-15.80969,16.20697],[-15.79592,16.23421],[-15.79719,16.25114],[-15.79229,16.27995],[-15.76478,16.34509],[-15.74263,16.37887],[-15.71709,16.405],[-15.68612,16.45391],[-15.59748,16.48081],[-15.5831,16.48158],[-15.56777,16.48931],[-15.52151,16.49973],[-15.49611,16.5096],[-15.4213,16.52059],[-15.20013,16.52322],[-15.11233,16.51673],[-15.07394,16.51009],[-15.03435,16.49138],[-15.01924,16.48886],[-14.92425,16.49531],[-14.90986,16.50508],[-14.90122,16.51554],[-14.87556,16.51905],[-14.85684,16.52976],[-14.84005,16.5284]]]},"properties":{"FID":1,"ZONE":"ZSP","AEZ":"Zone  Sylvo Pastorale"}},{"type":"Feature","id":2,"geometry":{"type":"Polygon","coordinates":[[[-16.34289,15.82146],[-16.32935,15.79836],[-16.33362,15.79345],[-16.34388,15.79151],[-16.34547,15.78036],[-16.34054,15.72447],[-16.34153,15.69499],[-16.36511,15.65071],[-16.37931,15.63342],[-16.38631,15.60992],[-16.39746,15.60008],[-16.43099,15.58262],[-16.44806,15.56693],[-16.44561,15.5586],[-16.43986,15.55493],[-16.41338,15.55748],[-16.40809,15.55195],[-16.40612,15.54292],[-16.41252,15.53706],[-16.4416,15.53264],[-16.44538,15.5275],[-16.43101,15.51974],[-16.43143,15.51254],[-16.43976,15.50945],[-16.45147,15.51167],[-16.4581,15.50442],[-16.46237,15.4698],[-16.46943,15.45605],[-16.48319,15.44642],[-16.50182,15.44858],[-16.52553,15.46066],[-16.54932,15.45256],[-16.5653,15.45195],[-16.59396,15.48627],[-16.60346,15.48154],[-16.60771,15.47547],[-16.6098,15.46895],[-16.601,15.44234],[-16.60862,15.44065],[-16.61691,15.43361],[-16.61923,15.42616],[-16.61232,15.39768],[-16.60798,15.39192],[-16.59601,15.386],[-16.55448,15.38035],[-16.51821,15.34679],[-16.51387,15.3401],[-16.52999,15.32835],[-16.52916,15.31328],[-16.5472,15.3029],[-16.59047,15.25912],[-16.59978,15.26089],[-16.61872,15.2751],[-16.62216,15.25836],[-16.61576,15.23243],[-16.62287,15.22773],[-16.65744,15.23065],[-16.67496,15.21726],[-16.70292,15.22605],[-16.70833,15.2181],[-16.70626,15.19909],[-16.772,15.16991],[-16.77651,15.14133],[-16.79477,15.10472],[-16.80984,15.08531],[-16.8186,15.07965],[-16.83284,15.07487],[-16.84954,15.07864],[-16.8871,15.09798],[-16.89989,15.09112],[-16.89785,15.07675],[-16.90206,15.06859],[-16.9099,15.06642],[-16.92168,15.0533],[-16.93274,15.01444],[-16.95107,14.98895],[-16.96978,14.9797],[-17.0005,14.95803],[-17.03226,14.94562],[-17.08221,14.89658],[-17.11712,14.86719],[-17.12754,14.86313],[-17.14826,14.84317],[-17.14967,14.79513],[-17.11723,14.76047],[-17.14339,14.58484],[-17.15047,14.60316],[-17.16553,14.62695],[-17.20215,14.66673],[-17.2615,14.70743],[-17.2787,14.71317],[-17.2818,14.71017],[-17.34117,14.7347],[-17.36709,14.73971],[-17.38687,14.7395],[-17.40475,14.73649],[-17.42502,14.72672],[-17.42974,14.72046],[-17.43023,14.71141],[-17.42607,14.70472],[-17.42551,14.708],[-17.42298,14.70539],[-17.41769,14.70665],[-17.41692,14.702],[-17.42534,14.69598],[-17.41986,14.68561],[-17.42053,14.67879],[-17.42028,14.68349],[-17.42195,14.68222],[-17.42322,14.68587],[-17.42551,14.68352],[-17.42434,14.68683],[-17.42682,14.6858],[-17.42961,14.69241],[-17.43121,14.68826],[-17.43165,14.69191],[-17.43458,14.68813],[-17.43406,14.68372],[-17.43183,14.68659],[-17.42944,14.68332],[-17.4339,14.68237],[-17.43282,14.67872],[-17.42878,14.67972],[-17.43182,14.67509],[-17.42907,14.67397],[-17.42775,14.67758],[-17.42781,14.67332],[-17.42444,14.67566],[-17.42266,14.67237],[-17.42009,14.67658],[-17.42175,14.67],[-17.4309,14.66611],[-17.43428,14.65961],[-17.4302,14.65093],[-17.43274,14.64646],[-17.44372,14.65999],[-17.44307,14.66545],[-17.44764,14.67147],[-17.45788,14.67364],[-17.46072,14.67857],[-17.4632,14.67468],[-17.46771,14.67676],[-17.46994,14.67388],[-17.46972,14.68616],[-17.47752,14.69279],[-17.47364,14.6955],[-17.47495,14.69879],[-17.48786,14.70701],[-17.49077,14.7148],[-17.5034,14.71913],[-17.50401,14.72537],[-17.51513,14.73782],[-17.53153,14.74117],[-17.5271,14.75073],[-17.52155,14.748],[-17.51665,14.75163],[-17.51151,14.75022],[-17.50594,14.75573],[-17.50151,14.75272],[-17.50121,14.7563],[-17.4892,14.75759],[-17.48044,14.76668],[-17.46919,14.76155],[-17.43625,14.76922],[-17.33281,14.80947],[-17.1925,14.87603],[-17.12991,14.90902],[-17.12487,14.91428],[-17.1142,14.94176],[-17.10561,14.95465],[-16.97872,15.09574],[-16.86173,15.24672],[-16.77135,15.39094],[-16.66405,15.54655],[-16.62327,15.61073],[-16.58277,15.68162],[-16.53123,15.79291],[-16.52057,15.80484],[-16.51357,15.82651],[-16.36008,15.81876],[-16.34571,15.8308],[-16.34289,15.82146]]]},"properties":{"FID":2,"ZONE":"NDK","AEZ":"Niayes"}},{"type":"Feature","id":3,"geometry":{"type":"Polygon","coordinates":[[[-16.11217,15.96874],[-16.10773,15.94719],[-16.08955,15.90438],[-16.06568,15.86904],[-16.03995,15.84299],[-16.03632,15.83489],[-16.03932,15.81492],[-16.05806,15.78903],[-16.05991,15.77857],[-16.0528,15.74682],[-16.05264,15.71758],[-16.06985,15.67569],[-16.07241,15.66522],[-16.06999,15.65828],[-16.05967,15.64907],[-16.04651,15.64475],[-16.02765,15.6472],[-16.00114,15.64575],[-15.96848,15.6571],[-15.95271,15.6565],[-15.87136,15.62498],[-15.87204,15.61638],[-15.88699,15.5968],[-15.88529,15.59031],[-15.87639,15.5769],[-15.86297,15.56584],[-15.84697,15.56362],[-15.83459,15.57018],[-15.82385,15.57164],[-15.82071,15.56284],[-15.82211,15.55564],[-15.80694,15.52508],[-15.80711,15.51092],[-15.80275,15.4954],[-15.79386,15.4799],[-15.78261,15.4723],[-15.7725,15.45008],[-15.77485,15.44217],[-15.81256,15.39113],[-15.82432,15.35253],[-15.79945,14.99243],[-15.79626,14.96901],[-15.78551,14.96071],[-15.76635,14.92994],[-15.75062,14.92492],[-15.72747,14.9074],[-15.71502,14.88959],[-15.70516,14.859],[-15.66396,14.8483],[-15.60042,14.84535],[-15.54705,14.82099],[-15.48262,14.83705],[-15.44142,14.82329],[-15.43686,14.80404],[-15.43671,14.74252],[-15.4317,14.7379],[-15.4136,14.72497],[-15.37837,14.70792],[-15.32361,14.67051],[-15.24535,14.64523],[-15.10388,14.62449],[-15.04041,14.60816],[-15.02116,14.61633],[-14.99526,14.6396],[-14.96888,14.6566],[-14.93489,14.68521],[-14.90374,14.70476],[-14.85429,14.65771],[-14.84763,14.65006],[-14.84621,14.64171],[-14.83504,14.63127],[-14.61834,14.56298],[-14.61743,14.53187],[-14.59724,14.52631],[-14.49337,14.55232],[-14.47099,14.57088],[-14.40715,14.63887],[-14.39315,14.63051],[-14.33649,14.66204],[-14.32536,14.6488],[-14.31899,14.62929],[-14.30166,14.62115],[-14.29887,14.59933],[-14.29461,14.59097],[-14.2875,14.58562],[-14.00844,14.48629],[-13.83445,14.41413],[-13.73975,14.41218],[-13.74789,14.39413],[-13.79989,14.3444],[-13.80662,14.32701],[-13.84149,14.28232],[-13.86149,14.26729],[-13.88277,14.23113],[-13.88854,14.21513],[-13.89593,14.20633],[-13.92615,14.18366],[-13.93332,14.17254],[-13.94279,14.12057],[-13.9395,14.11336],[-13.92673,14.10359],[-13.92607,14.0936],[-13.94393,14.07345],[-13.99269,14.03503],[-14.01435,14.01256],[-14.12982,13.93175],[-14.14289,13.91854],[-14.15244,13.89697],[-14.15637,13.85264],[-14.155,13.83592],[-14.16145,13.82177],[-14.1902,13.79117],[-14.23198,13.75361],[-14.24554,13.73203],[-14.26689,13.71557],[-14.28233,13.69632],[-14.30818,13.68032],[-14.32077,13.45775],[-14.31392,13.4581],[-14.3212,13.4551],[-14.34758,13.46623],[-14.3678,13.46877],[-14.3945,13.48883],[-14.42729,13.50167],[-14.44357,13.52355],[-14.46858,13.54055],[-14.47213,13.57152],[-14.4876,13.60541],[-14.50606,13.62525],[-14.53334,13.64179],[-14.55762,13.65178],[-14.60363,13.6565],[-14.62621,13.6556],[-14.65865,13.64348],[-14.69967,13.6153],[-14.71253,13.61518],[-14.78212,13.65378],[-14.7949,13.72174],[-14.81272,13.75057],[-14.83916,13.77093],[-14.87211,13.78715],[-14.90398,13.79695],[-14.9463,13.80086],[-14.96732,13.79551],[-14.97646,13.79616],[-15.06211,13.82689],[-15.1216,13.80662],[-15.21505,13.75037],[-15.2393,13.75032],[-15.27191,13.7768],[-15.30294,13.78506],[-15.33875,13.7832],[-15.38183,13.76637],[-15.40613,13.74985],[-15.41922,13.73702],[-15.44154,13.70551],[-15.45678,13.66821],[-15.47304,13.59089],[-16.54521,13.59239],[-16.54613,13.5997],[-16.55044,13.60137],[-16.55966,13.59606],[-16.56738,13.61146],[-16.5782,13.61862],[-16.57829,13.63079],[-16.58187,13.63634],[-16.56283,13.65367],[-16.51063,13.66779],[-16.50386,13.68154],[-16.5044,13.69128],[-16.50871,13.69868],[-16.50734,13.70588],[-16.50071,13.70547],[-16.49584,13.71943],[-16.48876,13.7239],[-16.48812,13.73342],[-16.50072,13.74098],[-16.50076,13.74748],[-16.49012,13.75012],[-16.48946,13.75685],[-16.50554,13.75487],[-16.51048,13.74995],[-16.51328,13.7432],[-16.51134,13.73695],[-16.50275,13.72704],[-16.518,13.70719],[-16.5186,13.69117],[-16.524,13.68509],[-16.53157,13.68387],[-16.53953,13.67173],[-16.56575,13.66525],[-16.57068,13.65894],[-16.57776,13.65656],[-16.58314,13.6477],[-16.60087,13.64546],[-16.61348,13.6551],[-16.63606,13.70132],[-16.6256,13.7274],[-16.63493,13.74125],[-16.63215,13.74939],[-16.62118,13.7713],[-16.60969,13.78556],[-16.56429,13.82725],[-16.53459,13.8463],[-16.51517,13.84623],[-16.49981,13.851],[-16.48487,13.84833],[-16.48373,13.85554],[-16.47712,13.85814],[-16.46999,13.85518],[-16.46361,13.85709],[-16.4663,13.86914],[-16.48809,13.86989],[-16.48577,13.87594],[-16.46478,13.8905],[-16.44868,13.89202],[-16.44225,13.88651],[-16.43538,13.88563],[-16.43424,13.8926],[-16.44474,13.90412],[-16.45969,13.90795],[-16.45973,13.91445],[-16.44848,13.93334],[-16.4348,13.94111],[-16.43674,13.94829],[-16.45729,13.93907],[-16.47829,13.89109],[-16.49364,13.884],[-16.50217,13.8851],[-16.48976,13.90632],[-16.49471,13.93738],[-16.47563,13.95424],[-16.47332,13.96261],[-16.48623,13.97922],[-16.48727,13.99337],[-16.47053,14.00488],[-16.46773,14.01117],[-16.46981,14.0397],[-16.46821,14.04737],[-16.4635,14.05205],[-16.44931,14.0568],[-16.42628,14.05188],[-16.40143,14.05811],[-16.3972,14.06279],[-16.43014,14.06114],[-16.45316,14.06513],[-16.47441,14.05405],[-16.47977,14.04031],[-16.48238,14.00617],[-16.49178,13.99333],[-16.49666,13.97937],[-16.48983,13.95157],[-16.50609,13.93891],[-16.51027,13.92564],[-16.51041,13.91218],[-16.51679,13.90957],[-16.52086,13.91604],[-16.52798,13.9176],[-16.54538,13.89982],[-16.55443,13.87306],[-16.57793,13.8478],[-16.64595,13.82307],[-16.66733,13.8013],[-16.67998,13.77989],[-16.70209,13.79439],[-16.70904,13.80627],[-16.72641,13.81725],[-16.73098,13.82603],[-16.73318,13.83483],[-16.72705,13.83906],[-16.73139,13.849],[-16.73075,13.85759],[-16.72534,13.86275],[-16.73494,13.87867],[-16.73217,13.88751],[-16.73773,13.90208],[-16.71596,13.90483],[-16.70976,13.90025],[-16.71011,13.88307],[-16.70455,13.86943],[-16.69837,13.86554],[-16.68732,13.84615],[-16.68044,13.84412],[-16.67599,13.85066],[-16.69704,13.87762],[-16.70006,13.90127],[-16.69468,13.9099],[-16.6829,13.91836],[-16.70609,13.91467],[-16.71529,13.91018],[-16.73709,13.91114],[-16.74139,13.9162],[-16.73368,13.92927],[-16.74041,13.94244],[-16.73935,13.9573],[-16.73162,13.96828],[-16.71418,13.98097],[-16.70979,13.99447],[-16.6961,14.00178],[-16.68449,14.00142],[-16.64828,13.97715],[-16.62032,13.9767],[-16.61143,13.99186],[-16.60247,13.99774],[-16.58307,14.00231],[-16.5344,14.02246],[-16.53067,14.03154],[-16.53875,14.03402],[-16.56236,14.02268],[-16.56901,14.02355],[-16.57237,14.03002],[-16.57831,14.03253],[-16.50474,14.0856],[-16.47894,14.12619],[-16.47183,14.12671],[-16.4657,14.1321],[-16.45124,14.13245],[-16.44363,14.1288],[-16.43749,14.13372],[-16.43765,14.15763],[-16.42389,14.15704],[-16.4229,14.14985],[-16.41765,14.14456],[-16.38488,14.13785],[-16.36009,14.15475],[-16.34395,14.15279],[-16.33995,14.15862],[-16.33333,14.16053],[-16.30295,14.15751],[-16.29152,14.14947],[-16.28442,14.15114],[-16.28589,14.15926],[-16.29208,14.16432],[-16.33669,14.1677],[-16.35278,14.16177],[-16.36846,14.16537],[-16.38315,14.16363],[-16.38428,14.1548],[-16.39017,14.14964],[-16.40277,14.15349],[-16.41854,14.17124],[-16.42731,14.17163],[-16.44292,14.16455],[-16.45004,14.16611],[-16.44166,14.18846],[-16.41445,14.19959],[-16.41687,14.2063],[-16.44718,14.19863],[-16.45094,14.19303],[-16.45786,14.16419],[-16.45136,14.15125],[-16.45203,14.14404],[-16.45981,14.13818],[-16.46601,14.14277],[-16.47976,14.14289],[-16.50336,14.16057],[-16.51286,14.16165],[-16.50708,14.1494],[-16.49422,14.14138],[-16.49251,14.1342],[-16.50597,14.12597],[-16.51177,14.10828],[-16.54608,14.06506],[-16.55316,14.06175],[-16.57354,14.06018],[-16.58628,14.05172],[-16.59222,14.05469],[-16.59574,14.04909],[-16.59025,14.04473],[-16.59353,14.03889],[-16.60505,14.02696],[-16.61463,14.00761],[-16.62712,13.99822],[-16.63468,13.9956],[-16.65604,14.00052],[-16.68199,14.01607],[-16.71369,14.00882],[-16.71445,14.01508],[-16.68147,14.04067],[-16.68703,14.05454],[-16.70081,14.05837],[-16.70206,14.06694],[-16.68849,14.05987],[-16.679,14.05879],[-16.65489,14.0669],[-16.65186,14.07343],[-16.65528,14.08778],[-16.63948,14.09837],[-16.6393,14.10533],[-16.65865,14.09425],[-16.66288,14.08864],[-16.65855,14.08103],[-16.66726,14.07259],[-16.68311,14.06851],[-16.69666,14.07442],[-16.70425,14.07481],[-16.71157,14.07103],[-16.71365,14.06475],[-16.71145,14.05525],[-16.69192,14.04336],[-16.69941,14.03192],[-16.72326,14.01987],[-16.72195,14.00434],[-16.72563,13.99061],[-16.73343,13.98868],[-16.7393,13.98097],[-16.74687,13.97928],[-16.75329,13.98247],[-16.75011,13.97019],[-16.75367,13.97063],[-16.7564,13.95737],[-16.75698,13.91026],[-16.75152,13.84905],[-16.75359,13.8416],[-16.75965,13.84031],[-16.76109,13.8664],[-16.75807,13.894],[-16.77301,14.04873],[-16.7838,14.09342],[-16.80242,14.12955],[-16.80176,14.13423],[-16.80328,14.13273],[-16.80699,14.13697],[-16.81406,14.13455],[-16.82088,14.13673],[-16.82025,14.14385],[-16.82527,14.14667],[-16.82601,14.14313],[-16.84828,14.16581],[-16.85596,14.17876],[-16.86663,14.18451],[-16.86956,14.21146],[-16.87832,14.23762],[-16.91302,14.28147],[-16.92112,14.28554],[-16.92897,14.28521],[-16.9323,14.30084],[-16.9307,14.33338],[-16.933,14.34977],[-16.94384,14.36567],[-16.94714,14.37731],[-16.95584,14.38591],[-16.96136,14.39705],[-16.96909,14.40606],[-16.99637,14.42434],[-17.0067,14.43632],[-17.02043,14.43993],[-17.02996,14.44805],[-17.04889,14.44944],[-17.0556,14.45291],[-17.06424,14.46957],[-17.07233,14.47248],[-17.08046,14.48644],[-17.08937,14.4947],[-17.09488,14.51777],[-17.10718,14.54625],[-17.13116,14.56507],[-17.1431,14.58407],[-17.11723,14.76047],[-17.14967,14.79513],[-17.14826,14.84317],[-17.12754,14.86313],[-17.11712,14.86719],[-17.08221,14.89658],[-17.03226,14.94562],[-17.0005,14.95803],[-16.96978,14.9797],[-16.95107,14.98895],[-16.93274,15.01444],[-16.92168,15.0533],[-16.9099,15.06642],[-16.90206,15.06859],[-16.89785,15.07675],[-16.89989,15.09112],[-16.8871,15.09798],[-16.84954,15.07864],[-16.83284,15.07487],[-16.8186,15.07965],[-16.80984,15.08531],[-16.79477,15.10472],[-16.77651,15.14133],[-16.772,15.16991],[-16.70626,15.19909],[-16.70833,15.2181],[-16.70292,15.22605],[-16.67496,15.21726],[-16.65744,15.23065],[-16.62287,15.22773],[-16.61576,15.23243],[-16.62216,15.25836],[-16.61872,15.2751],[-16.59978,15.26089],[-16.59047,15.25912],[-16.5472,15.3029],[-16.52916,15.31328],[-16.52999,15.32835],[-16.51387,15.3401],[-16.51821,15.34679],[-16.55448,15.38035],[-16.59601,15.386],[-16.60798,15.39192],[-16.61232,15.39768],[-16.61923,15.42616],[-16.61691,15.43361],[-16.60862,15.44065],[-16.601,15.44234],[-16.6098,15.46895],[-16.60771,15.47547],[-16.60346,15.48154],[-16.59396,15.48627],[-16.5653,15.45195],[-16.54932,15.45256],[-16.52553,15.46066],[-16.50182,15.44858],[-16.48319,15.44642],[-16.46943,15.45605],[-16.46237,15.4698],[-16.4581,15.50442],[-16.45147,15.51167],[-16.43976,15.50945],[-16.43143,15.51254],[-16.43101,15.51974],[-16.44538,15.5275],[-16.4416,15.53264],[-16.41252,15.53706],[-16.40612,15.54292],[-16.40809,15.55195],[-16.41338,15.55748],[-16.43986,15.55493],[-16.44561,15.5586],[-16.44806,15.56693],[-16.43099,15.58262],[-16.39746,15.60008],[-16.38631,15.60992],[-16.37931,15.63342],[-16.36511,15.65071],[-16.34153,15.69499],[-16.34054,15.72447],[-16.34547,15.78036],[-16.34388,15.79151],[-16.33362,15.79345],[-16.32935,15.79836],[-16.34571,15.8308],[-16.3349,15.83985],[-16.32795,15.83829],[-16.27851,15.84356],[-16.24919,15.8547],[-16.23516,15.86687],[-16.22151,15.8997],[-16.18839,15.91828],[-16.17294,15.93325],[-16.15261,15.96975],[-16.13777,15.96948],[-16.12609,15.97607],[-16.11674,15.97428],[-16.11217,15.96874]]]},"properties":{"FID":3,"ZONE":"BA","AEZ":"Bassin Arachidier"}},{"type":"Feature","id":4,"geometry":{"type":"Polygon","coordinates":[[[-14.93777,16.63312],[-14.9308,16.63437],[-14.91315,16.6504],[-14.90768,16.64627],[-14.90764,16.63564],[-14.89709,16.63195],[-14.89236,16.63856],[-14.88753,16.65749],[-14.87821,16.66178],[-14.86806,16.65427],[-14.85954,16.63753],[-14.83997,16.64144],[-14.82778,16.6359],[-14.82389,16.63988],[-14.82158,16.65134],[-14.81194,16.65492],[-14.78857,16.63016],[-14.77719,16.64962],[-14.76964,16.6566],[-14.76511,16.65702],[-14.75175,16.64805],[-14.74919,16.64186],[-14.75001,16.62788],[-14.73637,16.62011],[-14.74022,16.63097],[-14.72959,16.6334],[-14.73022,16.64482],[-14.72581,16.64832],[-14.71292,16.63997],[-14.68777,16.64722],[-14.64307,16.65076],[-14.63737,16.64527],[-14.63715,16.63643],[-14.64031,16.63163],[-14.64937,16.62999],[-14.63883,16.61863],[-14.62966,16.62927],[-14.61909,16.63045],[-14.60972,16.62831],[-14.60308,16.61865],[-14.59469,16.62528],[-14.58496,16.62119],[-14.57306,16.62547],[-14.55764,16.61853],[-14.55,16.64256],[-14.54457,16.64535],[-14.52697,16.62971],[-14.51122,16.62484],[-14.49726,16.61517],[-14.49022,16.61658],[-14.4779,16.62751],[-14.44909,16.62482],[-14.43863,16.64063],[-14.42117,16.65381],[-14.41283,16.65138],[-14.40946,16.63838],[-14.40525,16.63442],[-14.38181,16.6389],[-14.36701,16.63496],[-14.34462,16.64264],[-14.33196,16.64249],[-14.32667,16.63819],[-14.32377,16.62804],[-14.32445,16.60102],[-14.33164,16.57706],[-14.32801,16.56734],[-14.29897,16.5729],[-14.28602,16.58703],[-14.2739,16.58389],[-14.26403,16.57434],[-14.27286,16.55244],[-14.2602,16.52756],[-14.25247,16.54376],[-14.24206,16.54806],[-14.2205,16.54579],[-14.19758,16.53223],[-14.1965,16.52672],[-14.20157,16.51875],[-14.19899,16.51149],[-14.16476,16.49413],[-14.15094,16.47367],[-14.14407,16.47299],[-14.13761,16.47965],[-14.13107,16.47809],[-14.12955,16.47323],[-14.13778,16.46345],[-14.13674,16.45542],[-14.11552,16.4481],[-14.10642,16.43865],[-14.10208,16.42624],[-14.08272,16.41763],[-14.06886,16.40684],[-14.06121,16.39483],[-14.03553,16.36833],[-14.02833,16.35052],[-13.9969,16.34846],[-13.96483,16.33189],[-13.95452,16.31418],[-13.95512,16.3068],[-13.96151,16.30327],[-13.97958,16.3074],[-13.98776,16.3028],[-13.98521,16.2765],[-13.96408,16.27793],[-13.94895,16.27045],[-13.95004,16.26541],[-13.96711,16.24706],[-13.9703,16.22402],[-13.94075,16.23647],[-13.93064,16.22936],[-13.91898,16.23122],[-13.91109,16.19794],[-13.89753,16.1937],[-13.88125,16.2001],[-13.86944,16.19202],[-13.86468,16.17997],[-13.87363,16.16783],[-13.87493,16.15513],[-13.86601,16.14174],[-13.86406,16.13209],[-13.85262,16.12805],[-13.84662,16.10941],[-13.8438,16.10947],[-13.82622,16.13098],[-13.80823,16.14069],[-13.79387,16.14626],[-13.76543,16.1459],[-13.74839,16.15417],[-13.72403,16.18074],[-13.71626,16.18432],[-13.70331,16.18127],[-13.69837,16.16913],[-13.70235,16.15703],[-13.71585,16.14394],[-13.7135,16.13383],[-13.703,16.11644],[-13.6806,16.09715],[-13.66016,16.11161],[-13.63256,16.10956],[-13.584,16.13294],[-13.56775,16.13768],[-13.55411,16.13737],[-13.52202,16.12952],[-13.51136,16.13259],[-13.49063,16.14915],[-13.47933,16.14717],[-13.47111,16.13566],[-13.47252,16.12865],[-13.50177,16.11714],[-13.51006,16.10473],[-13.50727,16.09324],[-13.49613,16.08187],[-13.48581,16.085],[-13.47264,16.10614],[-13.45813,16.11103],[-13.45151,16.10658],[-13.44366,16.08756],[-13.37282,16.05828],[-13.36984,16.04703],[-13.37356,16.0225],[-13.36978,16.00961],[-13.35901,15.99576],[-13.35974,15.96937],[-13.34858,15.94966],[-13.3375,15.93798],[-13.32445,15.93128],[-13.31451,15.93102],[-13.30916,15.9249],[-13.3084,15.91498],[-13.32124,15.90351],[-13.32266,15.89131],[-13.29774,15.87262],[-13.29365,15.85807],[-13.29683,15.84405],[-13.29226,15.82182],[-13.28367,15.80987],[-13.26515,15.79572],[-13.26176,15.78989],[-13.26484,15.78057],[-13.28504,15.78285],[-13.28632,15.77125],[-13.27451,15.7552],[-13.24026,15.729],[-13.204,15.69492],[-13.20861,15.6817],[-13.21826,15.67071],[-13.23105,15.6685],[-13.24263,15.67441],[-13.24717,15.67167],[-13.24666,15.65347],[-13.23424,15.63611],[-13.22578,15.61645],[-13.2142,15.61407],[-13.19949,15.62646],[-13.18324,15.62833],[-13.13874,15.60509],[-13.08449,15.58321],[-13.08339,15.57695],[-13.09036,15.57174],[-13.08201,15.55866],[-13.0823,15.54666],[-13.09755,15.51902],[-13.10016,15.50413],[-13.09599,15.49697],[-13.04626,15.48024],[-13.01595,15.4864],[-13.0077,15.49452],[-12.99377,15.49906],[-12.96289,15.50281],[-12.95539,15.47512],[-12.95817,15.44892],[-12.94971,15.44399],[-12.93,15.44925],[-12.92035,15.44195],[-12.9263,15.42805],[-12.94011,15.42037],[-12.94283,15.41575],[-12.94333,15.36209],[-12.92783,15.34735],[-12.90562,15.33852],[-12.88632,15.33885],[-12.84778,15.31728],[-12.84093,15.3093],[-12.82982,15.2844],[-12.83121,15.27144],[-12.84688,15.2508],[-12.86296,15.25133],[-12.87799,15.2636],[-12.88531,15.26512],[-12.89204,15.26333],[-12.89501,15.25833],[-12.89063,15.24687],[-12.85881,15.22575],[-12.84717,15.2018],[-12.84194,15.20129],[-12.82555,15.21442],[-12.81539,15.21745],[-12.80362,15.21713],[-12.79122,15.21001],[-12.78177,15.18704],[-12.78923,15.16437],[-12.78598,15.15189],[-12.74386,15.13342],[-12.72098,15.10947],[-12.70165,15.10146],[-12.68984,15.09001],[-12.68627,15.10187],[-12.6797,15.10814],[-12.66874,15.1115],[-12.65586,15.10909],[-12.60199,15.08336],[-12.58557,15.06324],[-12.57404,15.05617],[-12.55369,15.03646],[-12.50431,15.01945],[-12.49222,15.01839],[-12.48218,15.0112],[-12.46098,14.99053],[-12.45619,14.97917],[-12.4509,14.93116],[-12.44605,14.9145],[-12.4476,14.89168],[-12.43339,14.88262],[-12.41667,14.86421],[-12.39649,14.8484],[-12.35412,14.83101],[-12.33507,14.83195],[-12.32635,14.82874],[-12.3148,14.82059],[-12.27963,14.78077],[-12.23418,14.7656],[-12.23054,14.7391],[-12.21498,14.73692],[-12.20753,14.72976],[-12.20508,14.71626],[-12.21044,14.7042],[-12.20242,14.69818],[-12.18296,14.69826],[-12.17031,14.6886],[-12.16175,14.69111],[-12.15596,14.68733],[-12.15895,14.67567],[-12.1741,14.66654],[-12.1718,14.66352],[-12.14837,14.65781],[-12.14239,14.65199],[-12.1404,14.63657],[-12.14696,14.61903],[-12.1537,14.61399],[-12.16479,14.61327],[-12.21502,14.63043],[-12.23058,14.64032],[-12.26427,14.66292],[-12.28919,14.68403],[-12.40102,14.792],[-12.48552,14.86675],[-12.52444,14.89447],[-12.54101,14.90157],[-12.56057,14.91821],[-12.60273,14.93434],[-12.78275,15.03601],[-12.85169,15.06854],[-12.9017,15.1174],[-12.93482,15.13968],[-12.95294,15.16324],[-12.96926,15.22761],[-12.99897,15.26169],[-13.02531,15.30062],[-13.04424,15.31652],[-13.06512,15.32617],[-13.0824,15.34114],[-13.14174,15.37122],[-13.1689,15.40155],[-13.19011,15.43277],[-13.20831,15.48137],[-13.23106,15.49961],[-13.28996,15.5336],[-13.29658,15.54199],[-13.30949,15.56944],[-13.35286,15.64185],[-13.3674,15.67697],[-13.43337,15.76665],[-13.46007,15.80879],[-13.46806,15.82762],[-13.50854,15.88328],[-13.51419,15.89584],[-13.55503,15.93711],[-13.57337,15.94856],[-13.60724,15.96194],[-13.64061,15.97972],[-13.72401,16.03182],[-13.78967,16.05481],[-13.88693,16.08159],[-13.90529,16.09349],[-13.94865,16.13585],[-13.99133,16.17125],[-14.04674,16.20412],[-14.07727,16.2332],[-14.14915,16.28022],[-14.16159,16.29303],[-14.19242,16.31258],[-14.20458,16.32978],[-14.22154,16.34489],[-14.25313,16.3584],[-14.30024,16.39096],[-14.31602,16.407],[-14.34185,16.42536],[-14.37149,16.45881],[-14.40118,16.47439],[-14.43435,16.49756],[-14.4637,16.50855],[-14.49991,16.51229],[-14.5304,16.50046],[-14.57091,16.51276],[-14.59563,16.50766],[-14.63591,16.51647],[-14.6659,16.5146],[-14.68676,16.52225],[-14.71914,16.52757],[-14.75921,16.52313],[-14.81126,16.53004],[-14.83381,16.52654],[-14.84677,16.5307],[-14.85684,16.52976],[-14.87556,16.51905],[-14.90122,16.51554],[-14.90986,16.50508],[-14.92425,16.49531],[-15.01924,16.48886],[-15.03435,16.49138],[-15.07394,16.51009],[-15.11233,16.51673],[-15.20013,16.52322],[-15.42131,16.52059],[-15.49611,16.5096],[-15.52151,16.49973],[-15.56777,16.48931],[-15.5831,16.48158],[-15.59748,16.48081],[-15.67199,16.45909],[-15.68612,16.45391],[-15.71709,16.405],[-15.74263,16.37887],[-15.76478,16.34509],[-15.79229,16.27995],[-15.79719,16.25114],[-15.79592,16.23421],[-15.80969,16.20697],[-15.81216,16.1925],[-15.82587,16.1832],[-15.87709,16.12951],[-15.90594,16.1052],[-15.96205,16.07838],[-15.97945,16.06597],[-16.13646,15.99084],[-16.1467,15.98288],[-16.17294,15.93325],[-16.18839,15.91828],[-16.22151,15.8997],[-16.23516,15.86687],[-16.24919,15.8547],[-16.27851,15.84356],[-16.32795,15.83829],[-16.3349,15.83985],[-16.36008,15.81876],[-16.51357,15.82651],[-16.52057,15.80484],[-16.53123,15.79291],[-16.548,15.75722],[-16.54329,15.78305],[-16.52328,15.85013],[-16.51137,16.00805],[-16.50999,16.06733],[-16.49262,16.07668],[-16.48314,16.06545],[-16.47218,16.07905],[-16.46589,16.08219],[-16.46205,16.09286],[-16.44831,16.10012],[-16.44767,16.10668],[-16.45982,16.11676],[-16.46138,16.12254],[-16.45647,16.13396],[-16.45948,16.15173],[-16.45692,16.15612],[-16.459,16.18342],[-16.44718,16.20329],[-16.43654,16.2143],[-16.41881,16.22107],[-16.40144,16.21397],[-16.39059,16.21727],[-16.3764,16.23372],[-16.36724,16.25994],[-16.35811,16.2675],[-16.35732,16.27813],[-16.37112,16.29756],[-16.36934,16.31368],[-16.3596,16.33001],[-16.34403,16.33689],[-16.33585,16.3478],[-16.33373,16.3547],[-16.33659,16.36874],[-16.33507,16.39623],[-16.32759,16.40531],[-16.3131,16.40986],[-16.30886,16.45968],[-16.30113,16.47027],[-16.28852,16.47608],[-16.28659,16.50734],[-16.26714,16.52348],[-16.2439,16.52975],[-16.21386,16.51835],[-16.19063,16.51983],[-16.17596,16.52757],[-16.15168,16.55028],[-16.13576,16.55498],[-16.11326,16.55622],[-16.10011,16.54592],[-16.09966,16.52279],[-16.07601,16.50781],[-16.05331,16.47848],[-16.03699,16.48085],[-16.01437,16.49873],[-16.00231,16.50325],[-15.98618,16.4992],[-15.97473,16.49161],[-15.97127,16.4858],[-15.965,16.4852],[-15.95157,16.49038],[-15.93613,16.50373],[-15.91985,16.512],[-15.89003,16.51751],[-15.86281,16.51147],[-15.85915,16.50535],[-15.85861,16.49202],[-15.83558,16.50479],[-15.81334,16.5092],[-15.78185,16.49602],[-15.73373,16.49024],[-15.69996,16.47211],[-15.6888,16.48067],[-15.66011,16.48275],[-15.63305,16.491],[-15.62791,16.49977],[-15.63222,16.5184],[-15.62918,16.52403],[-15.62265,16.52742],[-15.5986,16.52946],[-15.57507,16.51553],[-15.56137,16.51257],[-15.54473,16.5141],[-15.5177,16.52226],[-15.50933,16.52936],[-15.52035,16.5459],[-15.52018,16.55509],[-15.51602,16.56309],[-15.5046,16.57219],[-15.48202,16.58177],[-15.46949,16.59269],[-15.45169,16.59004],[-15.43847,16.57955],[-15.43138,16.56709],[-15.42559,16.5449],[-15.39933,16.53728],[-15.37748,16.54681],[-15.36071,16.56041],[-15.33667,16.5614],[-15.31115,16.57607],[-15.29637,16.57615],[-15.27019,16.56906],[-15.25853,16.57141],[-15.24104,16.557],[-15.23255,16.5546],[-15.22229,16.55708],[-15.20371,16.57044],[-15.17995,16.57903],[-15.17631,16.58768],[-15.17113,16.59146],[-15.15386,16.58919],[-15.13507,16.58082],[-15.11833,16.58022],[-15.09245,16.59935],[-15.08595,16.6081],[-15.0867,16.61604],[-15.09434,16.62623],[-15.11465,16.62964],[-15.12243,16.63918],[-15.11848,16.65626],[-15.09586,16.67963],[-15.08166,16.67753],[-15.07259,16.67095],[-15.062,16.64432],[-15.05164,16.62977],[-15.04673,16.63426],[-15.03411,16.6321],[-15.00504,16.64313],[-15.00021,16.65226],[-14.99863,16.68169],[-14.99183,16.69093],[-14.98198,16.69357],[-14.94971,16.67691],[-14.94738,16.66997],[-14.95159,16.6496],[-14.94372,16.63666],[-14.93777,16.63312]]]},"properties":{"FID":4,"ZONE":"VAL","AEZ":"Vallée du Fleuve"}},{"type":"Feature","id":5,"geometry":{"type":"Polygon","coordinates":[[[-14.88799,13.4465],[-14.85156,13.4462],[-14.82947,13.42722],[-14.81102,13.41799],[-14.78626,13.41484],[-14.75943,13.41767],[-14.74667,13.39228],[-14.73119,13.37554],[-14.67155,13.34451],[-14.64185,13.34041],[-14.61275,13.34266],[-14.577,13.35899],[-14.55385,13.32919],[-14.53159,13.31339],[-14.50923,13.30408],[-14.45842,13.30046],[-14.43731,13.2711],[-14.42419,13.26121],[-14.39826,13.24441],[-14.35778,13.22996],[-14.29912,13.2391],[-14.27316,13.23998],[-14.26618,13.24309],[-14.25109,13.22626],[-14.23387,13.21814],[-14.21615,13.21927],[-14.18182,13.23017],[-14.16629,13.22265],[-14.14782,13.22073],[-14.13239,13.22708],[-14.11774,13.24265],[-14.11403,13.25406],[-14.11439,13.27965],[-14.06448,13.29172],[-14.04633,13.2886],[-14.00398,13.29147],[-13.95084,13.32163],[-13.89433,13.31591],[-13.85964,13.3225],[-13.83589,13.33558],[-13.81898,13.35278],[-13.79959,13.38486],[-13.79203,13.41377],[-13.79155,13.43854],[-13.81589,13.45946],[-13.83581,13.49613],[-13.86013,13.51146],[-13.84243,13.50568],[-13.83744,13.51007],[-13.83619,13.52492],[-13.82711,13.54695],[-13.79445,13.54988],[-13.78689,13.54707],[-13.78646,13.53872],[-13.80263,13.51973],[-13.80083,13.50023],[-13.81084,13.48238],[-13.80923,13.47193],[-13.80025,13.47144],[-13.78863,13.4793],[-13.77134,13.48506],[-13.76212,13.48433],[-13.72741,13.47239],[-13.71565,13.46029],[-13.71899,13.45357],[-13.74433,13.44505],[-13.75762,13.43488],[-13.7572,13.4242],[-13.74856,13.40282],[-13.76991,13.38687],[-13.77208,13.37759],[-13.74255,13.37402],[-13.72244,13.37675],[-13.70207,13.38643],[-13.67323,13.38704],[-13.66971,13.3803],[-13.6707,13.37311],[-13.69013,13.36295],[-13.70606,13.34443],[-13.70632,13.33817],[-13.69948,13.33606],[-13.66729,13.34571],[-13.66188,13.34058],[-13.66975,13.32645],[-13.67146,13.31624],[-13.6857,13.30352],[-13.69,13.29448],[-13.68745,13.28496],[-13.67756,13.27796],[-13.64942,13.28252],[-13.63975,13.27877],[-13.6379,13.2718],[-13.64482,13.25743],[-13.64252,13.24605],[-13.6177,13.24806],[-13.61041,13.242],[-13.60809,13.23503],[-13.61473,13.22902],[-13.61642,13.22183],[-13.59943,13.21991],[-13.59639,13.21247],[-13.60045,13.20576],[-13.61673,13.20883],[-13.6144,13.20232],[-13.60874,13.19975],[-13.61876,13.18122],[-13.61668,13.17216],[-13.61031,13.17051],[-13.60024,13.15562],[-13.60804,13.15333],[-13.61393,13.15567],[-13.61893,13.14919],[-13.61873,13.14199],[-13.61358,13.13338],[-13.59988,13.13427],[-13.60209,13.11779],[-13.58891,13.11032],[-13.58852,13.09523],[-13.58429,13.09058],[-13.57387,13.09588],[-13.57084,13.0903],[-13.5789,13.0836],[-13.58203,13.07247],[-13.57545,13.06571],[-13.56554,13.06614],[-13.56739,13.07265],[-13.56311,13.07727],[-13.55508,13.0791],[-13.55228,13.07306],[-13.56133,13.05777],[-13.55379,13.05566],[-13.54693,13.05842],[-13.54607,13.04263],[-13.54114,13.03844],[-13.52224,13.04069],[-13.51755,13.03556],[-13.52041,13.02977],[-13.53272,13.02378],[-13.53301,13.01404],[-13.52241,13.01098],[-13.51696,13.01444],[-13.50799,13.01418],[-13.50427,13.00534],[-13.50525,12.99792],[-13.51376,12.9954],[-13.51099,12.98448],[-13.50702,12.9768],[-13.49853,12.97585],[-13.49504,12.96748],[-13.51348,12.96081],[-13.51895,12.95225],[-13.51309,12.94665],[-13.50245,12.94986],[-13.49659,12.94288],[-13.50067,12.93152],[-13.50894,12.92784],[-13.50314,12.9118],[-13.48855,12.90432],[-13.48363,12.8985],[-13.46665,12.89867],[-13.46393,12.8787],[-13.46773,12.87337],[-13.47809,12.8762],[-13.47436,12.86945],[-13.45016,12.85311],[-13.46411,12.8469],[-13.47515,12.8546],[-13.48457,12.8565],[-13.46654,12.83368],[-13.47506,12.82907],[-13.48053,12.82027],[-13.47568,12.80192],[-13.46578,12.80118],[-13.46705,12.78634],[-13.46191,12.77726],[-13.46219,12.76845],[-13.47646,12.74807],[-13.45961,12.72503],[-13.46553,12.72041],[-13.47188,12.72229],[-13.47286,12.71603],[-13.46798,12.70418],[-13.47368,12.69677],[-13.46867,12.69793],[-13.47348,12.68957],[-13.4767,12.67231],[-13.50055,12.67513],[-13.99884,12.67435],[-14.46628,12.68127],[-14.87927,12.67908],[-15.0254,12.68508],[-15.17383,12.68471],[-15.23543,12.65962],[-15.27023,12.63845],[-15.33524,12.61373],[-15.36733,12.57844],[-15.43318,12.53327],[-15.50934,12.50321],[-15.68115,12.42455],[-15.73652,12.43384],[-15.88752,12.45054],[-15.95338,12.44265],[-16.03779,12.47152],[-16.06788,12.47051],[-16.16064,12.44771],[-16.20126,12.4606],[-16.26864,12.4316],[-16.33979,12.39122],[-16.37218,12.3762],[-16.37907,12.36193],[-16.41897,12.36543],[-16.48546,12.35695],[-16.50995,12.35005],[-16.5434,12.36],[-16.60415,12.3461],[-16.63882,12.35651],[-16.68841,12.35869],[-16.71678,12.33859],[-16.72955,12.35396],[-16.73088,12.36805],[-16.73612,12.37866],[-16.74469,12.38138],[-16.75082,12.38975],[-16.77174,12.40406],[-16.78857,12.45418],[-16.79018,12.47706],[-16.78233,12.49231],[-16.77477,12.52092],[-16.75113,12.54201],[-16.73792,12.50592],[-16.73057,12.49879],[-16.72183,12.49468],[-16.71241,12.49476],[-16.68749,12.50193],[-16.67853,12.49969],[-16.67324,12.48372],[-16.67789,12.47463],[-16.68771,12.46549],[-16.6872,12.459],[-16.67371,12.44983],[-16.66825,12.44198],[-16.66938,12.43524],[-16.67713,12.43216],[-16.69009,12.43484],[-16.68652,12.42837],[-16.67027,12.42874],[-16.66278,12.43437],[-16.6593,12.44252],[-16.66218,12.44969],[-16.67735,12.46581],[-16.6699,12.47771],[-16.65866,12.48662],[-16.65777,12.49429],[-16.66983,12.50162],[-16.67436,12.5097],[-16.66977,12.52691],[-16.6753,12.54451],[-16.67111,12.5515],[-16.66079,12.55809],[-16.64386,12.56171],[-16.62838,12.57228],[-16.61974,12.58372],[-16.60463,12.61518],[-16.58796,12.62343],[-16.58447,12.63089],[-16.5767,12.63118],[-16.55566,12.62137],[-16.5386,12.60665],[-16.54268,12.57992],[-16.53636,12.54957],[-16.53162,12.54543],[-16.52528,12.54872],[-16.53057,12.5647],[-16.52948,12.58003],[-16.51848,12.59056],[-16.51024,12.59271],[-16.48855,12.5894],[-16.4765,12.58368],[-16.46259,12.58286],[-16.44652,12.57462],[-16.43418,12.55916],[-16.42451,12.55761],[-16.41811,12.55092],[-16.39668,12.55317],[-16.38268,12.53493],[-16.3756,12.53313],[-16.35444,12.54001],[-16.33719,12.57332],[-16.33133,12.57778],[-16.31532,12.58114],[-16.30337,12.5926],[-16.28654,12.57414],[-16.27451,12.5719],[-16.25568,12.57551],[-16.23292,12.594],[-16.21905,12.60059],[-16.19826,12.58889],[-16.19417,12.57267],[-16.18871,12.56481],[-16.17955,12.56998],[-16.15128,12.57108],[-16.1261,12.57821],[-16.09792,12.59835],[-16.07977,12.59776],[-16.0633,12.60343],[-16.03437,12.61545],[-16.02568,12.62153],[-16.02264,12.62805],[-16.01629,12.63018],[-15.9894,12.62523],[-15.98349,12.62155],[-15.96192,12.59242],[-15.9428,12.58277],[-15.9338,12.57238],[-15.89865,12.56119],[-15.88219,12.57196],[-15.87559,12.56967],[-15.85085,12.57143],[-15.8433,12.56775],[-15.82295,12.54371],[-15.80478,12.538],[-15.78955,12.5613],[-15.75546,12.58375],[-15.74059,12.57871],[-15.72482,12.58181],[-15.71135,12.57189],[-15.70451,12.57076],[-15.68237,12.57319],[-15.66954,12.53679],[-15.63438,12.51861],[-15.61014,12.52939],[-15.59041,12.55084],[-15.5824,12.55436],[-15.56072,12.55282],[-15.55724,12.57559],[-15.54901,12.58259],[-15.5462,12.58933],[-15.55257,12.59093],[-15.53377,12.61074],[-15.5267,12.61472],[-15.51963,12.61452],[-15.51941,12.62218],[-15.50014,12.64408],[-15.51758,12.6447],[-15.52349,12.64886],[-15.516,12.6728],[-15.51743,12.68023],[-15.5236,12.69367],[-15.53635,12.70244],[-15.53923,12.72379],[-15.53646,12.74794],[-15.53153,12.75447],[-15.52423,12.75751],[-15.52472,12.76657],[-15.53253,12.77768],[-15.51203,12.78681],[-15.50566,12.78661],[-15.49858,12.78106],[-15.48301,12.77904],[-15.44882,12.78567],[-15.43214,12.81893],[-15.40308,12.79489],[-15.38774,12.79053],[-15.37973,12.79381],[-15.37503,12.80079],[-15.37908,12.82213],[-15.37531,12.82888],[-15.3501,12.84104],[-15.31897,12.84788],[-15.31862,12.85111],[-15.33879,12.85292],[-15.35458,12.84427],[-15.3791,12.83653],[-15.38405,12.83187],[-15.38944,12.8156],[-15.38777,12.80284],[-15.39318,12.7991],[-15.40735,12.8081],[-15.41587,12.82038],[-15.43806,12.8275],[-15.44655,12.82514],[-15.45996,12.80907],[-15.49671,12.79036],[-15.51088,12.79657],[-15.51679,12.80374],[-15.52434,12.80557],[-15.55277,12.76204],[-15.55181,12.75368],[-15.56097,12.74158],[-15.5619,12.73553],[-15.56115,12.71929],[-15.54596,12.68104],[-15.54449,12.6576],[-15.53406,12.63465],[-15.53805,12.62814],[-15.56886,12.60247],[-15.57566,12.58782],[-15.60765,12.56818],[-15.6342,12.53765],[-15.64079,12.53832],[-15.65991,12.54798],[-15.66252,12.55377],[-15.66313,12.59974],[-15.66762,12.60599],[-15.6813,12.60964],[-15.6912,12.60843],[-15.71191,12.59882],[-15.7263,12.6027],[-15.74144,12.62004],[-15.7671,12.61202],[-15.78548,12.61146],[-15.80847,12.58001],[-15.82638,12.58131],[-15.83065,12.58825],[-15.82666,12.59338],[-15.83115,12.598],[-15.83942,12.60376],[-15.86136,12.61014],[-15.88583,12.59771],[-15.8905,12.58724],[-15.89638,12.58396],[-15.92405,12.60934],[-15.92763,12.61931],[-15.93354,12.62508],[-15.96916,12.63231],[-15.97461,12.6397],[-15.98251,12.66845],[-16.0092,12.67967],[-16.01511,12.6852],[-16.00441,12.71684],[-16.01223,12.72677],[-16.01254,12.74441],[-16.00715,12.75257],[-15.98575,12.76477],[-15.98318,12.77128],[-15.98324,12.78382],[-15.99398,12.81417],[-15.9879,12.82651],[-15.97074,12.8403],[-15.96912,12.84774],[-15.97299,12.86907],[-15.96807,12.87723],[-15.96124,12.88075],[-15.94516,12.87202],[-15.93147,12.86978],[-15.91379,12.87359],[-15.91004,12.87895],[-15.91224,12.8996],[-15.92409,12.91207],[-15.92719,12.92041],[-15.92395,12.93505],[-15.91854,12.93949],[-15.91168,12.93674],[-15.90007,12.92288],[-15.87503,12.91698],[-15.86985,12.92049],[-15.86846,12.927],[-15.87064,12.93975],[-15.85486,12.94796],[-15.84778,12.94777],[-15.84348,12.93363],[-15.83165,12.92533],[-15.80452,12.92919],[-15.79222,12.92113],[-15.78397,12.9214],[-15.77785,12.92631],[-15.77077,12.92611],[-15.76488,12.92985],[-15.7616,12.93707],[-15.76733,12.95492],[-15.76499,12.96259],[-15.74492,12.95781],[-15.70457,12.95963],[-15.69943,12.97753],[-15.69236,12.98151],[-15.68203,12.99851],[-15.67542,12.99784],[-15.6685,12.97396],[-15.65691,12.96473],[-15.65054,12.96731],[-15.64303,12.98174],[-15.6362,12.98641],[-15.61401,12.98396],[-15.60246,12.99074],[-15.59706,12.99889],[-15.5992,13.00677],[-15.59686,13.01514],[-15.58294,13.01613],[-15.58909,13.01959],[-15.60207,13.01953],[-15.60748,13.01393],[-15.61002,12.99396],[-15.62488,12.98879],[-15.6407,12.99034],[-15.64942,12.98775],[-15.65742,12.97703],[-15.66621,12.99673],[-15.67875,13.00525],[-15.69761,12.9989],[-15.71197,12.98676],[-15.71663,12.96723],[-15.77068,12.96976],[-15.77538,12.9637],[-15.77552,12.93607],[-15.77928,12.93025],[-15.78635,12.92928],[-15.79677,12.93782],[-15.80433,12.93964],[-15.8279,12.93302],[-15.83357,12.93624],[-15.84545,12.95591],[-15.85984,12.95421],[-15.8728,12.94856],[-15.88195,12.93714],[-15.88355,12.92436],[-15.90486,12.94142],[-15.92021,12.94412],[-15.92846,12.94129],[-15.93762,12.93172],[-15.93875,12.91825],[-15.93256,12.90622],[-15.92097,12.89769],[-15.91787,12.88959],[-15.91996,12.88261],[-15.94308,12.88109],[-15.95492,12.89286],[-15.96129,12.89259],[-15.97166,12.89091],[-15.98552,12.87689],[-15.98184,12.84418],[-16.00111,12.82759],[-16.00575,12.80899],[-15.99645,12.78653],[-15.99565,12.76401],[-16.02176,12.7504],[-16.02258,12.72254],[-16.01334,12.71191],[-16.01449,12.7054],[-16.02103,12.69097],[-16.03891,12.68251],[-16.04167,12.66671],[-16.03361,12.65584],[-16.04393,12.64464],[-16.05115,12.6251],[-16.05725,12.62065],[-16.08132,12.627],[-16.09428,12.62669],[-16.10181,12.62316],[-16.1176,12.62423],[-16.12512,12.62],[-16.13161,12.59698],[-16.1684,12.60348],[-16.18045,12.60967],[-16.19505,12.60655],[-16.22994,12.60934],[-16.23629,12.60675],[-16.24471,12.59601],[-16.26423,12.58706],[-16.30555,12.60349],[-16.32958,12.60193],[-16.33708,12.59631],[-16.35167,12.59226],[-16.34687,12.57651],[-16.35174,12.56254],[-16.36251,12.55132],[-16.37525,12.55472],[-16.40361,12.5703],[-16.45283,12.60591],[-16.47882,12.61709],[-16.48758,12.62422],[-16.48601,12.6363],[-16.47405,12.64591],[-16.47315,12.65311],[-16.48031,12.66698],[-16.4888,12.669],[-16.48655,12.64674],[-16.49543,12.63484],[-16.49819,12.62437],[-16.49533,12.61882],[-16.49836,12.61323],[-16.51467,12.62285],[-16.53958,12.64888],[-16.56327,12.66773],[-16.56638,12.6749],[-16.56245,12.687],[-16.56927,12.68509],[-16.59241,12.65566],[-16.59993,12.65212],[-16.61478,12.65316],[-16.62708,12.66025],[-16.63377,12.70755],[-16.62887,12.71478],[-16.62017,12.7188],[-16.59498,12.72364],[-16.58309,12.74301],[-16.581,12.81869],[-16.56506,12.83343],[-16.56393,12.84087],[-16.57307,12.86749],[-16.5661,12.88402],[-16.56712,12.89469],[-16.57212,12.90231],[-16.59932,12.913],[-16.60894,12.94031],[-16.62315,12.94831],[-16.63944,12.94934],[-16.63765,12.96351],[-16.64123,12.96975],[-16.66912,12.97624],[-16.66052,12.96216],[-16.64444,12.95649],[-16.64841,12.95089],[-16.6486,12.94346],[-16.6422,12.9391],[-16.62499,12.94064],[-16.616,12.93677],[-16.61495,12.92262],[-16.6095,12.91849],[-16.6061,12.90412],[-16.59993,12.8986],[-16.58058,12.89714],[-16.57489,12.8937],[-16.58035,12.86279],[-16.58043,12.83935],[-16.59323,12.81394],[-16.59209,12.78471],[-16.59649,12.73802],[-16.60046,12.73195],[-16.61485,12.73369],[-16.62989,12.72638],[-16.63834,12.72051],[-16.64206,12.71351],[-16.64102,12.66408],[-16.6305,12.64259],[-16.62998,12.63516],[-16.6351,12.6256],[-16.66228,12.6038],[-16.69889,12.58353],[-16.72827,12.57331],[-16.74066,12.5602],[-16.75173,12.55918],[-16.76094,12.56351],[-16.7668,12.57551],[-16.76586,12.61392],[-16.77843,12.64314],[-16.77019,12.66879],[-16.76961,12.68667],[-16.74586,12.72656],[-16.74095,12.73171],[-16.73293,12.73108],[-16.7147,12.72033],[-16.70103,12.71905],[-16.69659,12.72582],[-16.69792,12.7467],[-16.67791,12.75058],[-16.66362,12.76346],[-16.64304,12.75342],[-16.62731,12.76237],[-16.61364,12.76365],[-16.60998,12.78039],[-16.60483,12.78576],[-16.61342,12.80125],[-16.63433,12.82359],[-16.63533,12.8324],[-16.61654,12.84323],[-16.61446,12.85068],[-16.62709,12.86867],[-16.63141,12.88024],[-16.64464,12.88292],[-16.65122,12.87985],[-16.63747,12.86952],[-16.63242,12.85586],[-16.6234,12.84665],[-16.64264,12.83304],[-16.6452,12.82744],[-16.63826,12.81241],[-16.61121,12.78757],[-16.61631,12.77546],[-16.63794,12.76577],[-16.65401,12.77097],[-16.66885,12.76969],[-16.68904,12.75768],[-16.69705,12.75645],[-16.70197,12.75247],[-16.70729,12.73873],[-16.70344,12.72669],[-16.72947,12.74109],[-16.73702,12.74242],[-16.74783,12.73815],[-16.77514,12.70148],[-16.77942,12.70654],[-16.77604,12.72936],[-16.77916,12.74597],[-16.76833,12.76907],[-16.76194,12.82923],[-16.76717,12.83545],[-16.77066,12.82892],[-16.78359,12.76058],[-16.78938,12.77352],[-16.77788,12.80413],[-16.7728,12.8388],[-16.76266,12.87033],[-16.75309,12.92537],[-16.74598,12.9465],[-16.73616,13.01538],[-16.7374,13.04459],[-16.74808,13.06446],[-16.74327,13.07355],[-16.73365,13.07516],[-16.72911,13.08207],[-16.73382,13.09246],[-16.72674,13.09712],[-16.73703,13.10524],[-16.73517,13.11403],[-16.72855,13.11505],[-16.72286,13.10927],[-16.72173,13.11375],[-16.72565,13.12168],[-16.71302,13.12216],[-16.70923,13.13421],[-16.70129,13.13363],[-16.70332,13.14324],[-16.70948,13.14976],[-16.70583,13.15611],[-16.6993,13.15355],[-16.70198,13.16206],[-16.68973,13.16078],[-16.69086,13.16597],[-16.68414,13.16838],[-16.56473,13.16469],[-16.19259,13.16278],[-16.02412,13.16368],[-15.95102,13.16947],[-15.80259,13.16736],[-15.80296,13.34806],[-15.74884,13.34864],[-15.72083,13.35199],[-15.68045,13.37],[-15.61878,13.35137],[-15.58593,13.34899],[-15.55643,13.35966],[-15.518,13.39079],[-15.49351,13.39401],[-15.44835,13.37475],[-15.4373,13.37506],[-15.37944,13.35461],[-15.29522,13.36687],[-15.26876,13.38269],[-15.22892,13.41663],[-15.22212,13.42666],[-15.20685,13.47697],[-15.19563,13.52849],[-15.18517,13.53315],[-15.14993,13.56446],[-15.14272,13.5714],[-15.1398,13.58144],[-15.08892,13.59862],[-15.0791,13.57343],[-15.06686,13.55415],[-15.01555,13.50341],[-14.97907,13.48152],[-14.94085,13.46329],[-14.9119,13.45153],[-14.88799,13.4465]]]},"properties":{"FID":5,"ZONE":"ZF","AEZ":"Casamance"}},{"type":"Feature","id":6,"geometry":{"type":"Polygon","coordinates":[[[-12.17277,14.57932],[-12.18141,14.56752],[-12.18482,14.55168],[-12.20564,14.55327],[-12.21291,14.54655],[-12.20969,14.52509],[-12.21735,14.50551],[-12.21699,14.49184],[-12.19699,14.48054],[-12.19555,14.47542],[-12.20235,14.45653],[-12.18544,14.43954],[-12.19773,14.42158],[-12.19722,14.40721],[-12.16749,14.40064],[-12.1596,14.38798],[-12.15159,14.38474],[-12.13062,14.38741],[-12.1284,14.3921],[-12.1228,14.39415],[-12.12087,14.38797],[-12.1249,14.37936],[-12.12236,14.37148],[-12.11617,14.36918],[-12.10113,14.3757],[-12.09014,14.36688],[-12.09046,14.35343],[-12.09963,14.34784],[-12.08673,14.33503],[-12.09576,14.32734],[-12.08809,14.32426],[-12.09603,14.30921],[-12.08918,14.30527],[-12.07913,14.30523],[-12.07205,14.29812],[-12.05837,14.29957],[-12.04469,14.29027],[-12.02921,14.28995],[-12.02002,14.28099],[-11.99619,14.21515],[-11.98647,14.20671],[-11.98631,14.19324],[-11.97436,14.18827],[-11.97205,14.18395],[-11.9746,14.14689],[-11.98163,14.13719],[-11.98569,14.12363],[-11.98174,14.11489],[-11.98003,14.08788],[-11.99421,14.08428],[-11.99158,14.06348],[-11.99912,14.05155],[-12.00566,14.04958],[-12.0046,14.03226],[-12.01223,14.02719],[-12.00137,14.00329],[-12.00719,13.98734],[-11.99166,13.97856],[-11.98539,13.96493],[-11.93009,13.92449],[-11.94031,13.86172],[-11.94468,13.856],[-11.94394,13.84506],[-11.95001,13.82004],[-11.94839,13.80843],[-11.95968,13.8048],[-11.96381,13.79577],[-11.9734,13.79326],[-11.9803,13.77878],[-12.00082,13.76225],[-12.00334,13.75376],[-12.00928,13.74964],[-12.01583,13.74979],[-12.02822,13.73944],[-12.05537,13.72788],[-12.06562,13.71785],[-12.06856,13.71823],[-12.06417,13.70777],[-12.05358,13.69578],[-12.05262,13.68967],[-12.04546,13.68402],[-12.04277,13.6732],[-12.0366,13.66774],[-12.03049,13.64004],[-12.03395,13.62468],[-12.01829,13.6155],[-11.99248,13.58977],[-11.99326,13.56713],[-11.98287,13.56382],[-11.97404,13.55482],[-11.96743,13.53718],[-11.95018,13.5243],[-11.94567,13.52495],[-11.94237,13.52081],[-11.92453,13.51523],[-11.91528,13.50095],[-11.89377,13.49074],[-11.88858,13.47869],[-11.86968,13.46863],[-11.86291,13.45936],[-11.86055,13.43587],[-11.87,13.4248],[-11.88374,13.38753],[-11.88114,13.38397],[-11.86952,13.38091],[-11.85835,13.36248],[-11.84282,13.35281],[-11.83496,13.33434],[-11.82572,13.33021],[-11.82434,13.32046],[-11.82909,13.31093],[-11.7998,13.31124],[-11.78975,13.33572],[-11.78205,13.3399],[-11.76818,13.3403],[-11.75949,13.36857],[-11.7434,13.38884],[-11.74658,13.39902],[-11.74481,13.40964],[-11.73378,13.41688],[-11.69973,13.41438],[-11.68991,13.40332],[-11.68937,13.39091],[-11.66793,13.39005],[-11.64267,13.39716],[-11.62576,13.39677],[-11.62082,13.39148],[-11.62173,13.37973],[-11.63273,13.36466],[-11.61337,13.36229],[-11.59847,13.36843],[-11.59307,13.3675],[-11.59028,13.36242],[-11.59082,13.33613],[-11.58268,13.32223],[-11.58526,13.31096],[-11.57483,13.30825],[-11.56061,13.29233],[-11.54311,13.29083],[-11.5364,13.28224],[-11.53863,13.27441],[-11.53042,13.2651],[-11.5187,13.25903],[-11.51892,13.2529],[-11.53703,13.22973],[-11.53847,13.21165],[-11.53152,13.19995],[-11.50377,13.19872],[-11.4956,13.19263],[-11.49524,13.18062],[-11.49879,13.17232],[-11.51415,13.15867],[-11.51207,13.14905],[-11.49808,13.14482],[-11.49211,13.12118],[-11.47781,13.11374],[-11.47232,13.10042],[-11.43932,13.09895],[-11.42132,13.08173],[-11.42196,13.07305],[-11.4316,13.06153],[-11.43158,13.05722],[-11.41557,13.04023],[-11.40775,13.03733],[-11.40735,13.02922],[-11.41159,13.02082],[-11.39683,13.01678],[-11.39243,13.01126],[-11.39283,13.00324],[-11.40462,12.99845],[-11.41189,12.99922],[-11.41135,12.99281],[-11.40277,12.98351],[-11.40744,12.97144],[-11.40111,12.9764],[-11.38811,12.96757],[-11.38369,12.96913],[-11.38113,12.97739],[-11.38422,12.9925],[-11.38135,12.9956],[-11.36263,12.99283],[-11.35151,12.97788],[-11.35195,12.96065],[-11.3426,12.94408],[-11.34438,12.9365],[-11.34727,12.93261],[-11.38546,12.92267],[-11.38961,12.92372],[-11.39094,12.9297],[-11.39528,12.92678],[-11.39655,12.91375],[-11.38396,12.90998],[-11.3838,12.90214],[-11.39676,12.88999],[-11.39975,12.87845],[-11.39071,12.85954],[-11.3941,12.85369],[-11.40569,12.84665],[-11.39776,12.83922],[-11.39864,12.82775],[-11.38975,12.82863],[-11.38495,12.83301],[-11.37815,12.8311],[-11.38403,12.81391],[-11.37711,12.80112],[-11.3789,12.78],[-11.38571,12.77446],[-11.39365,12.77394],[-11.38433,12.76932],[-11.37387,12.75414],[-11.37972,12.74386],[-11.37531,12.74068],[-11.36536,12.74088],[-11.35987,12.72956],[-11.38297,12.7253],[-11.42065,12.7261],[-11.42019,12.6968],[-11.42866,12.69326],[-11.43423,12.70086],[-11.43406,12.68128],[-11.44469,12.67257],[-11.44059,12.66403],[-11.41949,12.66483],[-11.40979,12.65119],[-11.4085,12.63865],[-11.4034,12.63552],[-11.40373,12.62539],[-11.40844,12.61885],[-11.41855,12.61462],[-11.41913,12.60891],[-11.41795,12.60491],[-11.40286,12.59569],[-11.39966,12.5896],[-11.40523,12.57311],[-11.41652,12.56338],[-11.43767,12.56494],[-11.44298,12.54822],[-11.44027,12.54513],[-11.43492,12.55091],[-11.42718,12.55049],[-11.42299,12.54479],[-11.42274,12.52866],[-11.4132,12.52577],[-11.40769,12.54298],[-11.3838,12.53965],[-11.38309,12.53385],[-11.38764,12.52561],[-11.37765,12.52374],[-11.37511,12.51953],[-11.37839,12.49351],[-11.37228,12.48625],[-11.37482,12.49601],[-11.36694,12.51164],[-11.35514,12.50823],[-11.35209,12.50024],[-11.35067,12.486],[-11.35438,12.48826],[-11.35788,12.48168],[-11.34959,12.4761],[-11.34811,12.46508],[-11.35635,12.46413],[-11.36127,12.45368],[-11.37123,12.45322],[-11.36948,12.44378],[-11.3627,12.43562],[-11.3661,12.41942],[-11.37731,12.41615],[-11.3814,12.41868],[-11.39781,12.41854],[-11.41862,12.43728],[-11.43321,12.4415],[-11.44406,12.4401],[-11.46411,12.44322],[-11.47344,12.45005],[-11.49762,12.44858],[-11.58896,12.43934],[-11.59995,12.43153],[-11.6086,12.4326],[-11.61628,12.42857],[-11.62996,12.43531],[-11.65723,12.42914],[-11.66813,12.42543],[-11.69616,12.40233],[-11.71289,12.40277],[-11.72679,12.39105],[-11.74984,12.39098],[-11.76597,12.38594],[-11.77405,12.39547],[-11.79354,12.39688],[-11.80082,12.40586],[-11.80981,12.39961],[-11.81237,12.40255],[-11.82999,12.40422],[-11.84669,12.39697],[-11.84827,12.40162],[-11.86144,12.4124],[-11.86296,12.41866],[-11.87369,12.41981],[-11.88994,12.42714],[-11.89807,12.44937],[-11.96147,12.41052],[-11.97227,12.4068],[-11.97849,12.4092],[-12.00991,12.40311],[-12.01478,12.40487],[-12.01847,12.41112],[-12.03014,12.4159],[-12.03993,12.42781],[-12.05362,12.42834],[-12.06109,12.43395],[-12.06774,12.4285],[-12.07598,12.42903],[-12.11215,12.41633],[-12.13141,12.38822],[-12.14871,12.38415],[-12.15432,12.37589],[-12.17358,12.36796],[-12.17444,12.36154],[-12.20814,12.35552],[-12.2235,12.35792],[-12.22975,12.35171],[-12.23845,12.34916],[-12.24692,12.35315],[-12.27372,12.34268],[-12.27955,12.33621],[-12.29267,12.33679],[-12.35575,12.30786],[-12.36484,12.33624],[-12.37317,12.34166],[-12.3904,12.3758],[-12.40422,12.38561],[-12.41679,12.3841],[-12.4291,12.38671],[-12.44839,12.40009],[-12.49193,12.40825],[-12.5122,12.40525],[-12.53958,12.37744],[-12.56321,12.36753],[-12.57339,12.38433],[-12.58031,12.38821],[-12.58288,12.39931],[-12.58055,12.40803],[-12.59631,12.4038],[-12.60837,12.41294],[-12.61187,12.4259],[-12.62367,12.43431],[-12.66682,12.44181],[-12.69917,12.43699],[-12.76326,12.4349],[-12.75377,12.45694],[-12.75166,12.46471],[-12.75375,12.46684],[-12.76457,12.47374],[-12.77092,12.47033],[-12.79054,12.48305],[-12.80009,12.4777],[-12.8123,12.47615],[-12.82581,12.48759],[-12.84225,12.49336],[-12.84354,12.49726],[-12.83219,12.51118],[-12.83416,12.5158],[-12.84318,12.51596],[-12.87562,12.52996],[-12.88239,12.54084],[-12.87834,12.54921],[-12.88973,12.55312],[-12.92478,12.54452],[-12.94241,12.53602],[-12.94626,12.52825],[-12.93999,12.52246],[-12.94091,12.51368],[-12.93794,12.50775],[-12.94461,12.4759],[-12.96178,12.47491],[-12.96934,12.46667],[-12.99109,12.47166],[-12.99898,12.48033],[-13.02966,12.48342],[-13.03695,12.4795],[-13.05866,12.48363],[-13.06544,12.4919],[-13.06295,12.51641],[-13.06741,12.53383],[-13.05334,12.54619],[-13.05261,12.56255],[-13.04161,12.57837],[-13.0446,12.59131],[-13.0432,12.60076],[-13.0503,12.61175],[-13.04732,12.62311],[-13.06242,12.63264],[-13.05923,12.64257],[-13.07319,12.64324],[-13.07597,12.63565],[-13.08734,12.63208],[-13.09149,12.62575],[-13.09416,12.62889],[-13.10066,12.62749],[-13.10647,12.63547],[-13.11585,12.63522],[-13.11574,12.64107],[-13.12665,12.63767],[-13.1346,12.64404],[-13.13763,12.63479],[-13.14363,12.64033],[-13.15503,12.64289],[-13.15802,12.63612],[-13.16889,12.63936],[-13.17696,12.62914],[-13.18887,12.63971],[-13.20153,12.64293],[-13.2007,12.64964],[-13.20546,12.65383],[-13.21093,12.64973],[-13.2164,12.65135],[-13.21976,12.6445],[-13.22653,12.64099],[-13.23537,12.65035],[-13.24428,12.64613],[-13.25332,12.65209],[-13.26671,12.651],[-13.28065,12.65645],[-13.29004,12.65159],[-13.28829,12.64405],[-13.31854,12.64034],[-13.33129,12.64333],[-13.32863,12.65392],[-13.3313,12.65705],[-13.33992,12.64969],[-13.34377,12.65206],[-13.34503,12.65817],[-13.4767,12.67231],[-13.47348,12.68958],[-13.46867,12.69793],[-13.47367,12.69677],[-13.46798,12.70418],[-13.47286,12.71603],[-13.47188,12.7223],[-13.46553,12.72042],[-13.45961,12.72503],[-13.47645,12.74808],[-13.46219,12.76845],[-13.46191,12.77727],[-13.46704,12.78634],[-13.46578,12.80119],[-13.47568,12.80192],[-13.48053,12.82027],[-13.47506,12.82907],[-13.46654,12.83368],[-13.48457,12.8565],[-13.47515,12.8546],[-13.46411,12.8469],[-13.45016,12.85312],[-13.47436,12.86946],[-13.47809,12.8762],[-13.46773,12.87338],[-13.46393,12.8787],[-13.46664,12.89867],[-13.48363,12.8985],[-13.48855,12.90432],[-13.50314,12.91181],[-13.50894,12.92784],[-13.50067,12.93152],[-13.49659,12.94288],[-13.50245,12.94987],[-13.51309,12.94665],[-13.51895,12.95225],[-13.51348,12.96081],[-13.49504,12.96748],[-13.49853,12.97585],[-13.50702,12.9768],[-13.51099,12.98448],[-13.51376,12.9954],[-13.50525,12.99792],[-13.50426,13.00534],[-13.50799,13.01418],[-13.51696,13.01444],[-13.52241,13.01098],[-13.53301,13.01404],[-13.53272,13.02378],[-13.52041,13.02977],[-13.51755,13.03557],[-13.52224,13.04069],[-13.54114,13.03843],[-13.54607,13.04263],[-13.54693,13.05842],[-13.55379,13.05566],[-13.56133,13.05777],[-13.55228,13.07306],[-13.55508,13.0791],[-13.56311,13.07728],[-13.56739,13.07265],[-13.56553,13.06614],[-13.57545,13.06571],[-13.58203,13.07247],[-13.5789,13.0836],[-13.57084,13.0903],[-13.57387,13.09588],[-13.58429,13.09058],[-13.58851,13.09524],[-13.58891,13.11032],[-13.60209,13.1178],[-13.59988,13.13427],[-13.61358,13.13339],[-13.61873,13.14199],[-13.61893,13.14919],[-13.61393,13.15567],[-13.60804,13.15333],[-13.60024,13.15562],[-13.61031,13.17051],[-13.61668,13.17216],[-13.61876,13.18122],[-13.60874,13.19975],[-13.6144,13.20233],[-13.61673,13.20883],[-13.60044,13.20576],[-13.59639,13.21247],[-13.59942,13.21991],[-13.61642,13.22183],[-13.61473,13.22902],[-13.60809,13.23503],[-13.61041,13.242],[-13.6177,13.24806],[-13.64252,13.24605],[-13.64482,13.25743],[-13.6379,13.2718],[-13.63975,13.27877],[-13.64942,13.28252],[-13.67756,13.27796],[-13.68744,13.28496],[-13.69,13.29449],[-13.6857,13.30352],[-13.67146,13.31624],[-13.66975,13.32645],[-13.66188,13.34058],[-13.66729,13.34571],[-13.69948,13.33606],[-13.70632,13.33817],[-13.70606,13.34443],[-13.69013,13.36296],[-13.6707,13.37311],[-13.66971,13.3803],[-13.67323,13.38704],[-13.70207,13.38643],[-13.72244,13.37675],[-13.74255,13.37403],[-13.77208,13.37759],[-13.76991,13.38687],[-13.74856,13.40282],[-13.7572,13.4242],[-13.75762,13.43488],[-13.74433,13.44506],[-13.71899,13.45357],[-13.71565,13.46029],[-13.72741,13.47239],[-13.76212,13.48433],[-13.77134,13.48506],[-13.78863,13.4793],[-13.80025,13.47144],[-13.80923,13.47193],[-13.81084,13.48238],[-13.80083,13.50023],[-13.80263,13.51973],[-13.78646,13.53872],[-13.78689,13.54708],[-13.79445,13.54988],[-13.82711,13.54695],[-13.83619,13.52493],[-13.83744,13.51007],[-13.84243,13.50567],[-13.86133,13.51246],[-13.88017,13.54194],[-13.88993,13.55176],[-13.95901,13.57882],[-13.97593,13.57898],[-13.99456,13.57312],[-14.02681,13.55372],[-14.08883,13.55496],[-14.13555,13.53701],[-14.15854,13.53478],[-14.20021,13.51142],[-14.22214,13.49296],[-14.23746,13.47453],[-14.25974,13.47344],[-14.30826,13.45839],[-14.32077,13.45775],[-14.30818,13.68032],[-14.28233,13.69632],[-14.26689,13.71557],[-14.24554,13.73203],[-14.23198,13.75361],[-14.1902,13.79117],[-14.16145,13.82177],[-14.155,13.83592],[-14.15637,13.85264],[-14.15244,13.89697],[-14.14289,13.91854],[-14.12982,13.93175],[-14.01435,14.01256],[-13.99269,14.03503],[-13.94393,14.07345],[-13.92607,14.0936],[-13.92673,14.10359],[-13.9395,14.11336],[-13.94279,14.12057],[-13.93332,14.17254],[-13.92615,14.18366],[-13.89593,14.20633],[-13.88854,14.21513],[-13.88277,14.23113],[-13.86149,14.26729],[-13.84149,14.28232],[-13.80662,14.32701],[-13.79989,14.3444],[-13.74789,14.39413],[-13.73975,14.41218],[-13.51635,14.40742],[-13.23442,14.61721],[-12.94741,14.56487],[-12.92343,14.564],[-12.8549,14.57814],[-12.82734,14.57864],[-12.80926,14.58268],[-12.76632,14.60185],[-12.74202,14.60932],[-12.70856,14.62994],[-12.63544,14.7407],[-12.61126,14.80336],[-12.60625,14.84971],[-12.59885,14.87423],[-12.59038,14.88877],[-12.5868,14.91171],[-12.58888,14.91752],[-12.59807,14.92502],[-12.59925,14.93301],[-12.56057,14.91821],[-12.54101,14.90157],[-12.52444,14.89447],[-12.48552,14.86675],[-12.36033,14.75544],[-12.33336,14.7255],[-12.26427,14.66292],[-12.21502,14.63043],[-12.16356,14.61487],[-12.1691,14.60942],[-12.16786,14.58673],[-12.17277,14.57932]]]},"properties":{"FID":6,"ZONE":"ASP","AEZ":"Sénégal Oriental"}}]}
